#cP2017  5  9  0  0  0.00000000      96 ORBIT IGS14 HLM  IGS
## 1948 172800.00000000   900.00000000 57882 0.0000000000000
+   32   G01G02G03G04G05G06G07G08G09G10G11G12G13G14G15G16G17
+        G18G19G20G21G22G23G24G25G26G27G28G29G30G31G32  0  0
+          0  0  0  0  0  0  0  0  0  0  0  0  0  0  0  0  0
+          0  0  0  0  0  0  0  0  0  0  0  0  0  0  0  0  0
+          0  0  0  0  0  0  0  0  0  0  0  0  0  0  0  0  0
++         2  2  2  0  2  2  2  2  2  2  2  2  2  2  2  2  2
++         2  2  2  2  2  2  2  3  2  2  2  2  2  2  3  0  0
++         0  0  0  0  0  0  0  0  0  0  0  0  0  0  0  0  0
++         0  0  0  0  0  0  0  0  0  0  0  0  0  0  0  0  0
++         0  0  0  0  0  0  0  0  0  0  0  0  0  0  0  0  0
%c G  cc GPS ccc cccc cccc cccc cccc ccccc ccccc ccccc ccccc
%c cc cc ccc ccc cccc cccc cccc cccc ccccc ccccc ccccc ccccc
%f  1.2500000  1.025000000  0.00000000000  0.000000000000000
%f  0.0000000  0.000000000  0.00000000000  0.000000000000000
%i    0    0    0    0      0      0      0      0         0
%i    0    0    0    0      0      0      0      0         0
/* RAPID ORBIT COMBINATION FROM WEIGHTED AVERAGE OF:        
/* cod emr esa gfz jpl ngs sio usn whu                      
/* REFERENCED TO IGS TIME (IGST) AND TO WEIGHTED MEAN POLE: 
/* PCV:IGS14_1930 OL/AL:FES2004  NONE     Y  ORB:CMB CLK:CMB
*  2017  5  9 12 45  0.00000000
PG01 -21858.499823 -12595.875704   8626.795029     54.420503  6  3  9  72       
PG02  12162.439374  21173.848658  11341.671250    423.211641  5  6  4  65       
PG03 -14559.480656  -4607.807039  21731.278397   -101.259416  8  4  5  68       
PG04   6880.207331 -25493.749516    208.963116 999999.999999
PG05   4193.497846  22980.741160 -12528.234949    -46.844414  7  7  6 118       
PG06  -1917.427522  17236.390160  20135.368060    348.579468  4  7    107       
PG07 -18987.717744   -527.349933 -18566.783070    353.420127  8  7  5 106       
PG08 -17019.606243  -8185.381012 -18660.244020    -59.134622  6  6  5 119       
PG09 -25336.236867   7991.958943   -141.337870    359.626247 10  3  5 104       
PG10  10741.010353 -23041.180060  -7462.723214    -58.083402  6  4  8 107       
PG11 -24139.306291 -10890.462990  -2141.997533   -686.898707 10  6  6  92       
PG12  11336.448997  10917.956999  21270.815827    383.927232  7  4  6  90       
PG13   9267.270907  13138.386994 -21250.528758    -81.139107  6  5  1 111       
PG14   8161.270839 -15924.273762  19844.833197    -70.062395  8  6  7 102       
PG15  20535.789339   5278.846765 -16381.006984   -349.563186  5  5  4 109       
PG16  -1219.673860 -23243.765103 -12531.623375     32.929784 10  6  9 111       
PG17 -17019.941843  14388.877355  14684.489645   -180.428766  5  2  5  93       
PG18  14380.309366 -16086.328742 -14773.467640    614.616078  9  6  6  99       
PG19 -10341.228371  15151.790114  19041.583805   -504.319689  2  4  4 104       
PG20  14214.543904   9507.910330 -20467.349649    471.520230  5  2  7  40       
PG21  15416.369031  -5986.155698 -20025.952239   -508.008721  5  8  3 105       
PG22 -11692.773241 -14886.360969  18858.542850     15.595245  8  5  7 104       
PG23 -24511.517378   -727.878862  10977.555664   -211.449158  7  6  6  84       
PG24  22037.225015  13840.578422   5834.379780    -34.568606  9  5  4 103       
PG25  15597.235115  -5427.466620  20598.370950   -384.192152  7  5  7 114       
PG26   4218.943950 -26079.331653  -2242.006914   -506.231327  8  3  7  89       
PG27  -4765.092436 -14150.300781 -22018.139117    254.608088  7  6  5 111       
PG28 -13257.139769  20684.939864  -9458.164731    611.379944  8  2  4  96       
PG29  26041.591676  -4381.497610   2663.547802    605.806616 10  7  9  83       
PG30 -10078.895543  11843.200321 -21531.296999    157.268267  4  7  3  90       
PG31    772.117037 -18115.611619  19337.689380    202.189226  5  7  5  52       
PG32  15704.761426 -15604.813967  14657.154480   -408.758980  7  7  8  92       
*  2017  5  9 13  0  0.00000000
PG01 -22348.155927 -13308.662058   5937.763190     54.420931  7  3  9  60       
PG02  10977.013050  20494.008414  13639.422949    423.204550  5  6  4  81       
PG03 -14042.770131  -7022.881890  21425.630106   -101.257908  8  4  5  81       
PG04   7042.789162 -25234.206093   3114.403047 999999.999999
PG05   3698.276919  24204.519004 -10114.947733    -46.842538  6  6  6 117       
PG06  -3738.273437  15745.337154  21081.102693    348.584038  4  7     78       
PG07 -20409.179476  -2006.783199 -16938.270753    353.416213  8  7  6  89       
PG08 -14960.432784  -9013.898898 -19983.445623    -59.136706  5  6  5 117       
PG09 -25285.529078   7684.826187   2695.373154    359.633299 10  3  6 104       
PG10  10784.477372 -22002.252271 -10078.336303    -58.074985  6  4  8 105       
PG11 -23678.752757 -11175.423687  -4837.712120   -686.900941 10  7  7  94       
PG12  10675.202051  13226.490364  20306.309621    383.926582  6  5  6  64       
PG13   6893.014157  13687.170216 -21806.989292    -81.139984  6  6  2  98       
PG14  10270.480242 -16331.447327  18452.571840    -70.064231  9  7  7  99       
PG15  18818.486274   6191.135520 -18024.072303   -349.564083  3  5  5 105       
PG16   -704.505120 -24429.209970 -10004.347745     32.930551  9  6  9 100       
PG17 -18504.108045  14646.154075  12386.988972   -180.427487  6  3  6  91       
PG18  14344.074089 -14159.177206 -16614.980033    614.617882  8  6  6  99       
PG19 -12435.692286  15530.690891  17464.561645   -504.318439  2  4  4  91       
PG20  13862.758462  11754.584849 -19513.071847    471.521597  6  1  7  69       
PG21  17194.344137  -4376.769429 -19018.895191   -508.006907  5  8  4  87       
PG22 -11193.983911 -16877.381728  17403.986088     15.584411  8  5  8  93       
PG23 -23311.075403  -1368.983406  13294.469808   -211.449939  5  6  6 103       
PG24  22261.163450  14382.132251   3084.285445    -34.569027  9  5  3  87       
PG25  15175.605235  -3028.472747  21403.582919   -384.197994  7  5  7 124       
PG26   4499.404139 -26120.725361    613.020408   -506.227749  7  4  7  96       
PG27  -2396.228108 -14938.569974 -21862.830719    254.613996  7  6  4 100       
PG28 -13056.351527  19379.108316 -11995.875244    611.382658  9  2  4  86       
PG29  25642.042367  -4069.155538   5511.348443    605.803762 10  7  9  83       
PG30 -11831.542973  10106.812947 -21536.364411    157.267522  4  7  3  77       
PG31   2507.694277 -16639.062631  20520.877340    202.187109  4  7  6  51       
PG32  17236.935377 -15913.208398  12427.676485   -408.768657  8  7  8  93       
*  2017  5  9 13 15  0.00000000
PG01 -22633.229816 -13801.519006   3147.884039     54.421366  7  3  9  86       
PG02   9563.256252  19735.263702  15712.580666    423.197628  6  6  4  73       
PG03 -13659.992403  -9406.334394  20751.421401   -101.256367  8  5  5  90       
PG04   7166.739722 -24658.405212   5965.133874 999999.999999
PG05   3298.704817  25170.939577  -7526.251526    -46.841299  4  6  5 116       
PG06  -5703.901284  14300.115628  21664.758387    348.588589  3  7     86       
PG07 -21749.165764  -3278.958234 -15019.498585    353.412708  8  8  7  90       
PG08 -12826.653179 -10001.125015 -20962.022506    -59.137633  4  7  4 108       
PG09 -24956.618891   7253.443391   5485.711176    359.640358  9  3  7 100       
PG10  10842.140724 -20682.682658 -12519.211203    -58.066587  6  5  8 103       
PG11 -22948.236819 -11395.624926  -7450.831506   -686.903630 10  7  7  94       
PG12  10171.419191  15438.600144  18989.248316    383.925670  5  5  6  79       
PG13   4512.102425  14374.023450 -21992.133031    -81.141640  4  6  4  94       
PG14  12192.249508 -16796.711008  16747.610988    -70.065300  9  7  7  96       
PG15  16996.052161   7258.658302 -19364.624873   -349.564540  2  4  5 104       
PG16   -318.506105 -25350.693844  -7301.921726     32.931381  9  5  9 106       
PG17 -19719.093810  14894.083074   9878.532676   -180.425795  7  4  6  89       
PG18  14375.929585 -12036.227933 -18155.923312    614.619377  7  5  6 101       
PG19 -14313.734221  15967.279421  15584.036748   -504.317229  4  5  4  73       
PG20  13622.665006  13890.614743 -18227.013561    471.522859  7     7 109       
PG21  18931.342466  -2936.908376 -17663.402918   -508.004774  6  8  5  93       
PG22 -10805.076584 -18713.177190  15654.708227     15.573566  8  4  7 102       
PG23 -21917.342934  -2163.690818  15390.400168   -211.450348  5  6  6  83       
PG24  22260.676603  14726.399043    281.816185    -34.569200  8  6  3  66       
PG25  14874.497655   -541.938853  21834.290532   -384.203953  7  5  7 117       
PG26   4735.952959 -25855.907546   3457.439545   -506.224200  7  5  6  90       
PG27   -107.629308 -15840.635691 -21332.489557    254.619841  6  5  4  93       
PG28 -12869.648831  17785.988549 -14320.098706    611.385202  9  2  4  90       
PG29  24959.196960  -3632.912062   8264.090838    605.800742 10  6  9  85       
PG30 -13652.868968   8474.862833 -21171.258430    157.266742  3  8  4  83       
PG31   4403.365406 -15185.352944  21350.076184    202.185046  5  7  6  64       
PG32  18506.745533 -16199.636689   9984.022682   -408.778241  9  8  8  83       
EOF
